{
  "type": "FeatureCollection",
  "features": [
    {
      "type": "Feature",
      "properties": {
        "norad_id": 29268,
        "name": "ARIRANG-2 (KOMPSAT-2)",
        "group": "resource",
        "lat": 49.19396844116372,
        "lon": 17.883572977916163,
        "alt_km": 680.1765695406457,
        "timestamp": "2025-12-26T22:28:05.435746+00:00",
        "meta_object_name": "ARIRANG-2 (KOMPSAT-2)",
        "meta_object_id": "2006-031A",
        "meta_epoch": "2025-12-26T15:39:21.184128",
        "meta_mean_motion": 14.64506305,
        "meta_eccentricity": 0.00131186,
        "meta_inclination": 97.826,
        "meta_ra_of_asc_node": 188.4472,
        "meta_arg_of_pericenter": 261.1459,
        "meta_mean_anomaly": 173.4784,
        "meta_ephemeris_type": 0,
        "meta_classification_type": "U",
        "meta_norad_cat_id": 29268,
        "meta_element_set_no": 999,
        "meta_rev_at_epoch": 3622,
        "meta_bstar": 0.00010931466,
        "meta_mean_motion_dot": 5.35e-06,
        "meta_mean_motion_ddot": 0,
        "tle_line1": "1 29268U 06031A   25360.65232852  .00000535  00000+0  10931-3 0  9995",
        "tle_line2": "2 29268  97.8260 188.4472 0013118 261.1459 173.4784 14.64506305 36228"
      },
      "geometry": {
        "type": "Point",
        "coordinates": [
          17.883572977916163,
          49.19396844116372
        ]
      }
    },
    {
      "type": "Feature",
      "properties": {
        "norad_id": 29709,
        "name": "LAPAN-TUBSAT",
        "group": "resource",
        "lat": 64.90824998115578,
        "lon": -26.383049089517087,
        "alt_km": 597.5578368743982,
        "timestamp": "2025-12-26T22:28:05.435756+00:00",
        "meta_object_name": "LAPAN-TUBSAT",
        "meta_object_id": "2007-001A",
        "meta_epoch": "2025-12-26T18:56:21.538752",
        "meta_mean_motion": 14.85689951,
        "meta_eccentricity": 0.0013048,
        "meta_inclination": 98.1268,
        "meta_ra_of_asc_node": 351.2348,
        "meta_arg_of_pericenter": 32.2959,
        "meta_mean_anomaly": 327.9051,
        "meta_ephemeris_type": 0,
        "meta_classification_type": "U",
        "meta_norad_cat_id": 29709,
        "meta_element_set_no": 999,
        "meta_rev_at_epoch": 2555,
        "meta_bstar": 7.3535e-05,
        "meta_mean_motion_dot": 5.81e-06,
        "meta_mean_motion_ddot": 0,
        "tle_line1": "1 29709U 07001A   25360.78913818  .00000581  00000+0  73535-4 0  9996",
        "tle_line2": "2 29709  98.1268 351.2348 0013048  32.2959 327.9051 14.85689951 25555"
      },
      "geometry": {
        "type": "Point",
        "coordinates": [
          -26.383049089517087,
          64.90824998115578
        ]
      }
    },
    {
      "type": "Feature",
      "properties": {
        "norad_id": 31113,
        "name": "HAIYANG-1B",
        "group": "resource",
        "lat": 38.72652327770732,
        "lon": -22.121113665350045,
        "alt_km": 778.3658068096202,
        "timestamp": "2025-12-26T22:28:05.435766+00:00",
        "meta_object_name": "HAIYANG-1B",
        "meta_object_id": "2007-010A",
        "meta_epoch": "2025-12-26T12:13:01.450848",
        "meta_mean_motion": 14.3096953,
        "meta_eccentricity": 0.00135155,
        "meta_inclination": 98.3331,
        "meta_ra_of_asc_node": 344.2192,
        "meta_arg_of_pericenter": 358.4031,
        "meta_mean_anomaly": 1.7108,
        "meta_ephemeris_type": 0,
        "meta_classification_type": "U",
        "meta_norad_cat_id": 31113,
        "meta_element_set_no": 999,
        "meta_rev_at_epoch": 97593,
        "meta_bstar": 6.670665e-05,
        "meta_mean_motion_dot": 1.34e-06,
        "meta_mean_motion_ddot": 0,
        "tle_line1": "1 31113U 07010A   25360.50904457  .00000134  00000+0  66707-4 0  9994",
        "tle_line2": "2 31113  98.3331 344.2192 0013515 358.4031   1.7108 14.30969530975932"
      },
      "geometry": {
        "type": "Point",
        "coordinates": [
          -22.121113665350045,
          38.72652327770732
        ]
      }
    },
    {
      "type": "Feature",
      "properties": {
        "norad_id": 31598,
        "name": "COSMO-SKYMED 1",
        "group": "resource",
        "lat": 0.6130539783403781,
        "lon": 6.514101527425944,
        "alt_km": 582.8134381831469,
        "timestamp": "2025-12-26T22:28:05.435777+00:00",
        "meta_object_name": "COSMO-SKYMED 1",
        "meta_object_id": "2007-023A",
        "meta_epoch": "2025-12-26T15:14:52.022112",
        "meta_mean_motion": 14.95866804,
        "meta_eccentricity": 0.00011328,
        "meta_inclination": 97.8838,
        "meta_ra_of_asc_node": 186.1264,
        "meta_arg_of_pericenter": 77.5679,
        "meta_mean_anomaly": 282.5668,
        "meta_ephemeris_type": 0,
        "meta_classification_type": "U",
        "meta_norad_cat_id": 31598,
        "meta_element_set_no": 999,
        "meta_rev_at_epoch": 398,
        "meta_bstar": 0.00030501383,
        "meta_mean_motion_dot": 3.35e-05,
        "meta_mean_motion_ddot": 0,
        "tle_line1": "1 31598U 07023A   25360.63532433  .00003350  00000+0  30501-3 0  9995",
        "tle_line2": "2 31598  97.8838 186.1264 0001132  77.5679 282.5668 14.95866804  3985"
      },
      "geometry": {
        "type": "Point",
        "coordinates": [
          6.514101527425944,
          0.6130539783403781
        ]
      }
    },
    {
      "type": "Feature",
      "properties": {
        "norad_id": 31698,
        "name": "TERRASAR-X",
        "group": "resource",
        "lat": -54.03576329137616,
        "lon": 16.49173619448101,
        "alt_km": 516.307979444955,
        "timestamp": "2025-12-26T22:28:05.435787+00:00",
        "meta_object_name": "TERRASAR-X",
        "meta_object_id": "2007-026A",
        "meta_epoch": "2025-12-26T13:13:25.268160",
        "meta_mean_motion": 15.19159007,
        "meta_eccentricity": 0.0001831,
        "meta_inclination": 97.4449,
        "meta_ra_of_asc_node": 5.7296,
        "meta_arg_of_pericenter": 80.7089,
        "meta_mean_anomaly": 279.4352,
        "meta_ephemeris_type": 0,
        "meta_classification_type": "U",
        "meta_norad_cat_id": 31698,
        "meta_element_set_no": 999,
        "meta_rev_at_epoch": 2701,
        "meta_bstar": 7.451225e-05,
        "meta_mean_motion_dot": 1.498e-05,
        "meta_mean_motion_ddot": 0,
        "tle_line1": "1 31698U 07026A   25360.55098690  .00001498  00000+0  74512-4 0  9994",
        "tle_line2": "2 31698  97.4449   5.7296 0001831  80.7089 279.4352 15.19159007 27010"
      },
      "geometry": {
        "type": "Point",
        "coordinates": [
          16.49173619448101,
          -54.03576329137616
        ]
      }
    },
    {
      "type": "Feature",
      "properties": {
        "norad_id": 32060,
        "name": "WORLDVIEW-1 (WV-1)",
        "group": "resource",
        "lat": -30.720009878551256,
        "lon": -66.21074905888642,
        "alt_km": 501.44234187367965,
        "timestamp": "2025-12-26T22:28:05.435798+00:00",
        "meta_object_name": "WORLDVIEW-1 (WV-1)",
        "meta_object_id": "2007-041A",
        "meta_epoch": "2025-12-26T13:39:58.675104",
        "meta_mean_motion": 15.23982891,
        "meta_eccentricity": 0.00030548,
        "meta_inclination": 97.3818,
        "meta_ra_of_asc_node": 117.8466,
        "meta_arg_of_pericenter": 349.223,
        "meta_mean_anomaly": 10.8942,
        "meta_ephemeris_type": 0,
        "meta_classification_type": "U",
        "meta_norad_cat_id": 32060,
        "meta_element_set_no": 999,
        "meta_rev_at_epoch": 1658,
        "meta_bstar": 0.00036111193,
        "meta_mean_motion_dot": 8.675e-05,
        "meta_mean_motion_ddot": 0,
        "tle_line1": "1 32060U 07041A   25360.56942911  .00008675  00000+0  36111-3 0  9996",
        "tle_line2": "2 32060  97.3818 117.8466 0003054 349.2230  10.8942 15.23982891 16589"
      },
      "geometry": {
        "type": "Point",
        "coordinates": [
          -66.21074905888642,
          -30.720009878551256
        ]
      }
    },
    {
      "type": "Feature",
      "properties": {
        "norad_id": 32289,
        "name": "YAOGAN-3",
        "group": "resource",
        "lat": 81.25279369518496,
        "lon": -36.07980682036847,
        "alt_km": 589.9001395686564,
        "timestamp": "2025-12-26T22:28:05.435809+00:00",
        "meta_object_name": "YAOGAN-3",
        "meta_object_id": "2007-055A",
        "meta_epoch": "2025-12-26T18:51:34.517952",
        "meta_mean_motion": 14.89923254,
        "meta_eccentricity": 0.0001205,
        "meta_inclination": 97.8358,
        "meta_ra_of_asc_node": 27.283,
        "meta_arg_of_pericenter": 81.9317,
        "meta_mean_anomaly": 278.2037,
        "meta_ephemeris_type": 0,
        "meta_classification_type": "U",
        "meta_norad_cat_id": 32289,
        "meta_element_set_no": 999,
        "meta_rev_at_epoch": 98018,
        "meta_bstar": 5.6626e-05,
        "meta_mean_motion_dot": 4.89e-06,
        "meta_mean_motion_ddot": 0,
        "tle_line1": "1 32289U 07055A   25360.78581618  .00000489  00000+0  56626-4 0  9990",
        "tle_line2": "2 32289  97.8358  27.2830 0001205  81.9317 278.2037 14.89923254980187"
      },
      "geometry": {
        "type": "Point",
        "coordinates": [
          -36.07980682036847,
          81.25279369518496
        ]
      }
    }
  ]
}